INTELSAT 902 (IS-902)   
1 26900U 01039A   26166.17755505 -.00000284  00000+0  00000+0 0  9999
2 26900   6.1123  71.8090 0004489   8.9275 196.5439  1.00270716 90676
INTELSAT 904 (IS-904)   
1 27380U 02007A   26166.03889625 -.00000226  00000+0  00000+0 0  9990
2 27380   6.9148  69.2101 0006460   4.6857 171.9453  1.00270923 51746
DIRECTV 5 (TEMPO 1)     
1 27426U 02023A   26166.17128211 -.00000057  00000+0  00000+0 0  9993
2 27426   4.8728  75.3351 0003235  22.7787 116.9032  1.00271484 88108
INTELSAT 905 (IS-905)   
1 27438U 02027A   26165.59827877  .00000095  00000+0  00000+0 0  9990
2 27438   6.7471  69.8304 0003797  20.9273 250.3045  1.00272386 51330
GALAXY 3C (G-3C)        
1 27445U 02030A   26166.16572440 -.00000151  00000+0  00000+0 0  9993
2 27445   3.7266  78.0030 0001517  33.7555 116.5062  1.00271026 46479
INTELSAT 906 (IS-906)   
1 27513U 02041A   26166.20302918  .00000012  00000+0  00000+0 0  9992
2 27513   5.7978  72.9468 0004623   5.0095 322.7640  1.00272553 87000
GALAXY 13 (HORIZONS-1)  
1 27954U 03044A   26166.15805252  .00000136  00000+0  00000+0 0  9995
2 27954   1.4143  83.8911 0002288 349.9570  96.4900  1.00270107 46555
INTELSAT 10-02          
1 28358U 04022A   26166.04498883 -.00000007  00000+0  00000+0 0  9995
2 28358   0.0110 323.4081 0000383 227.1731  87.9371  1.00269697 80539
DIRECTV 8               
1 28659U 05019A   26166.01642035  .00000006  00000+0  00000+0 0  9991
2 28659   0.0157 313.9696 0002752 134.4325  61.7610  1.00271609 77056
GALAXY 28 (G-28)        
1 28702U 05022A   26166.18236822 -.00000199  00000+0  00000+0 0  9999
2 28702   3.2936  78.9586 0002879   4.4074 218.6567  1.00270997 51952
GALAXY 16 (G-16)        
1 29236U 06023A   26166.16572440 -.00000122  00000+0  00000+0 0  9997
2 29236   0.0113 291.3447 0002452 163.5763 129.1849  1.00270425 72951
DIRECTV 9S              
1 29494U 06043A   26166.17128211 -.00000111  00000+0  00000+0 0  9997
2 29494   2.4158  80.9258 0004842  11.7201 131.2837  1.00270820 51362
GALAXY 17 (G-17)        
1 31307U 07016B   26166.16016964 -.00000204  00000+0  00000+0 0  9997
2 31307   2.9671  79.9234 0004596  20.5527 135.6113  1.00266693 69783
INTELSAT 11 (IS-11)     
1 32253U 07044B   26166.00072347 -.00000271  00000+0  00000+0 0  9993
2 32253   3.5599  78.6949 0002243  91.3866 228.9453  0.99051737 68429
HORIZONS-2              
1 32388U 07063B   26166.17315206 -.00000251  00000+0  00000+0 0  9993
2 32388   2.5971  80.6504 0003718   0.9447 170.4079  1.00269051 67797
DIRECTV 11              
1 32729U 08013A   26165.95419218 -.00000120  00000+0  00000+0 0  9996
2 32729   0.0094 269.4466 0000495  94.4042 143.7272  1.00270145 45573
GALAXY 18 (G-18)        
1 32951U 08024A   26166.01642035  .00000030  00000+0  00000+0 0  9997
2 32951   0.0180  24.4650 0002679  61.5194  60.2305  1.00271770 45833
INTELSAT 25 (IS-25)     
1 33153U 08034A   26166.00378170 -.00000256  00000+0  00000+0 0  9999
2 33153   2.7043  80.3971 0003184  59.9551 255.6754  0.99035797 65667
GALAXY 19 (G-19)        
1 33376U 08045A   26166.16572440 -.00000135  00000+0  00000+0 0  9997
2 33376   0.0414 264.1635 0002334 176.1387 145.8209  1.00274921 64886
FM-5                    
1 35493U 09034A   26165.81425551 -.00000194  00000+0  00000+0 0  9994
2 35493   0.0205 292.4193 0001018  18.8658 158.8044  1.00269724 46628
INTELSAT 14 (IS-14)     
1 36097U 09064A   26166.17881486 -.00000269  00000+0  00000+0 0  9994
2 36097   0.0198  51.5279 0002145  24.7624 206.5600  1.00270200 60581
INTELSAT 15 (IS-15)     
1 36106U 09067A   26165.99075676 -.00000180  00000+0  00000+0 0  9995
2 36106   0.0210  52.3805 0002011  35.3627 257.3601  1.00270721 41205
DIRECTV 12              
1 36131U 09075A   26165.95349883 -.00000098  00000+0  00000+0 0  9990
2 36131   0.0094 103.7764 0000328 278.9922 121.0151  1.00271364 46532
INTELSAT 16 (IS-16)     
1 36397U 10006A   26166.20230375 -.00000240  00000+0  00000+0 0  9993
2 36397   0.0201 302.8300 0001916 162.2583 155.0286  1.00269482 59635
XM-5                    
1 37185U 10053A   26166.01642035 -.00000018  00000+0  00000+0 0  9993
2 37185   0.0647 273.1886 0002890 289.1857 311.6507  1.00271028 57463
INTELSAT 17 (IS-17)     
1 37238U 10065B   26166.20650133  .00000003  00000+0  00000+0 0  9997
2 37238   0.0100 282.8025 0002553 169.4403 311.5860  1.00271411 53228
INTELSAT 28 (IS-28)     
1 37392U 11016A   26166.18141487 -.00000222  00000+0  00000+0 0  9993
2 37392   1.8012  82.6455 0003585   5.9504 208.4708  1.00270100 53268
INTELSAT 18 (IS-18)     
1 37834U 11056A   26166.15207250  .00000057  00000+0  00000+0 0  9991
2 37834   0.0145 298.5556 0001541 144.1700  55.4592  1.00271062 53798
INTELSAT 22 (IS-22)     
1 38098U 12011A   26166.19955425  .00000000  00000+0  00000+0 0  9992
2 38098   0.0412  54.6311 0001605  44.5210 308.2583  1.00271298  7168
INTELSAT 19 (IS-19)     
1 38356U 12030A   26166.14929917 -.00000052  00000+0  00000+0 0  9990
2 38356   0.0176 347.9532 0002804 104.9165  30.3118  1.00270880 50438
INTELSAT 20 (IS-20)     
1 38740U 12043A   26166.20302918 -.00000020  00000+0  00000+0 0  9999
2 38740   0.0044  73.3145 0001741 103.2982 228.4824  1.00271377 50725
